start=new Date('2022-08-24T00:00:00.000Z').valueOf();
sats=[{"PERIOD":"95.593","ECCENTRICITY":"0.00013840","REV_AT_EPOCH":"7350","EPOCH":"2022-08-23T19:31:31.442304","NORAD_CAT_ID":"48390","DECAY_DATE":null,"TLE_LINE1":"1 48390U 21038AP  22235.81355836  .00000299  00000-0  38962-4 0  9993","LAUNCH_DATE":"2021-05-04","RCS_SIZE":"LARGE","GP_ID":"210859144","ARG_OF_PERICENTER":"82.3218","COUNTRY_CODE":"US","OBJECT_TYPE":"PAYLOAD","FILE":"3545624","TLE_LINE2":"2 48390  53.0560  30.0598 0001384  82.3218 277.7928 15.06392585 73501","MEAN_ANOMALY":"277.7928","MEAN_MOTION_DOT":"0.00000299","EPHEMERIS_TYPE":"0","MEAN_MOTION":"15.06392585","ELEMENT_SET_NO":"999","MEAN_ELEMENT_THEORY":"SGP4","CENTER_NAME":"EARTH","REF_FRAME":"TEME","APOAPSIS":"548.195","PERIAPSIS":"546.278","CLASSIFICATION_TYPE":"U","OBJECT_NAME":"STARLINK-2586","OBJECT_ID":"2021-038AP","RA_OF_ASC_NODE":"30.0598","INCLINATION":"53.0560","SITE":"AFETR","BSTAR":"0.00003896200000","MEAN_MOTION_DDOT":"0.0000000000000","SEMIMAJOR_AXIS":"6925.371","TIME_SYSTEM":"UTC"},{"MEAN_ELEMENT_THEORY":"SGP4","CENTER_NAME":"EARTH","ELEMENT_SET_NO":"999","REF_FRAME":"TEME","PERIAPSIS":"546.261","APOAPSIS":"548.202","CLASSIFICATION_TYPE":"U","OBJECT_NAME":"STARLINK-2607","OBJECT_ID":"2021-038AQ","RA_OF_ASC_NODE":"30.0839","SITE":"AFETR","INCLINATION":"53.0558","SEMIMAJOR_AXIS":"6925.366","BSTAR":"0.00003606300000","MEAN_MOTION_DDOT":"0.0000000000000","TIME_SYSTEM":"UTC","ECCENTRICITY":"0.00014010","PERIOD":"95.593","DECAY_DATE":null,"NORAD_CAT_ID":"48391","REV_AT_EPOCH":"7350","EPOCH":"2022-08-23T19:26:12.718752","RCS_SIZE":"LARGE","TLE_LINE1":"1 48391U 21038AQ  22235.80986943  .00000256  00000-0  36063-4 0  9995","LAUNCH_DATE":"2021-05-04","GP_ID":"210859392","ARG_OF_PERICENTER":"69.2890","COUNTRY_CODE":"US","MEAN_ANOMALY":"290.8249","TLE_LINE2":"2 48391  53.0558  30.0839 0001401  69.2890 290.8249 15.06394148 73506","MEAN_MOTION_DOT":"0.00000256","OBJECT_TYPE":"PAYLOAD","FILE":"3545624","EPHEMERIS_TYPE":"0","MEAN_MOTION":"15.06394148"},{"TIME_SYSTEM":"UTC","INCLINATION":"53.0560","SITE":"AFETR","BSTAR":"0.00004363300000","MEAN_MOTION_DDOT":"0.0000000000000","SEMIMAJOR_AXIS":"6925.392","CLASSIFICATION_TYPE":"U","OBJECT_NAME":"STARLINK-2605","OBJECT_ID":"2021-038AR","RA_OF_ASC_NODE":"31.5902","ELEMENT_SET_NO":"999","MEAN_ELEMENT_THEORY":"SGP4","CENTER_NAME":"EARTH","REF_FRAME":"TEME","APOAPSIS":"548.283","PERIAPSIS":"546.230","OBJECT_TYPE":"PAYLOAD","FILE":"3545070","TLE_LINE2":"2 48392  53.0560  31.5902 0001482  84.8836 275.2322 15.06385909 73457","MEAN_ANOMALY":"275.2322","MEAN_MOTION_DOT":"0.00000368","EPHEMERIS_TYPE":"0","MEAN_MOTION":"15.06385909","COUNTRY_CODE":"US","TLE_LINE1":"1 48392U 21038AR  22235.47445513  .00000368  00000-0  43633-4 0  9997","LAUNCH_DATE":"2021-05-04","RCS_SIZE":"LARGE","GP_ID":"210823629","ARG_OF_PERICENTER":"84.8836","PERIOD":"95.593","ECCENTRICITY":"0.00014820","REV_AT_EPOCH":"7345","NORAD_CAT_ID":"48392","EPOCH":"2022-08-23T11:23:12.923232","DECAY_DATE":null},{"CLASSIFICATION_TYPE":"U","RA_OF_ASC_NODE":"30.4061","OBJECT_NAME":"STARLINK-2602","OBJECT_ID":"2021-038AS","CENTER_NAME":"EARTH","MEAN_ELEMENT_THEORY":"SGP4","ELEMENT_SET_NO":"999","APOAPSIS":"548.295","PERIAPSIS":"546.165","REF_FRAME":"TEME","TIME_SYSTEM":"UTC","SITE":"AFETR","INCLINATION":"53.0547","SEMIMAJOR_AXIS":"6925.365","MEAN_MOTION_DDOT":"0.0000000000000","BSTAR":"-0.00001492700000","RCS_SIZE":"LARGE","LAUNCH_DATE":"2021-05-04","TLE_LINE1":"1 48393U 21038AS  22235.73615519 -.00000504  00000-0 -14927-4 0  9990","GP_ID":"210860888","ARG_OF_PERICENTER":"82.0888","ECCENTRICITY":"0.00015380","PERIOD":"95.592","DECAY_DATE":null,"EPOCH":"2022-08-23T17:40:03.808416","REV_AT_EPOCH":"7349","NORAD_CAT_ID":"48393","MEAN_MOTION_DOT":"-0.00000504","TLE_LINE2":"2 48393  53.0547  30.4061 0001538  82.0888 278.0276 15.06394574 73497","MEAN_ANOMALY":"278.0276","FILE":"3545624","OBJECT_TYPE":"PAYLOAD","MEAN_MOTION":"15.06394574","EPHEMERIS_TYPE":"0","COUNTRY_CODE":"US"},{"BSTAR":"0.00010280000000","MEAN_MOTION_DDOT":"0.0000000000000","SEMIMAJOR_AXIS":"6925.346","INCLINATION":"53.0559","SITE":"AFETR","TIME_SYSTEM":"UTC","REF_FRAME":"TEME","PERIAPSIS":"546.195","APOAPSIS":"548.228","ELEMENT_SET_NO":"999","MEAN_ELEMENT_THEORY":"SGP4","CENTER_NAME":"EARTH","OBJECT_ID":"2021-038AT","OBJECT_NAME":"STARLINK-2573","RA_OF_ASC_NODE":"30.4350","CLASSIFICATION_TYPE":"U","COUNTRY_CODE":"US","EPHEMERIS_TYPE":"0","MEAN_MOTION":"15.06400715","OBJECT_TYPE":"PAYLOAD","FILE":"3545624","MEAN_ANOMALY":"277.9338","TLE_LINE2":"2 48394  53.0559  30.4350 0001468  82.1817 277.9338 15.06400715 73499","MEAN_MOTION_DOT":"0.00001250","REV_AT_EPOCH":"7349","EPOCH":"2022-08-23T17:34:44.639904","NORAD_CAT_ID":"48394","DECAY_DATE":null,"PERIOD":"95.592","ECCENTRICITY":"0.00014680","GP_ID":"210859644","ARG_OF_PERICENTER":"82.1817","TLE_LINE1":"1 48394U 21038AT  22235.73246111  .00001250  00000-0  10280-3 0  9993","LAUNCH_DATE":"2021-05-04","RCS_SIZE":"LARGE"},{"TIME_SYSTEM":"UTC","INCLINATION":"53.0568","SITE":"AFETR","MEAN_MOTION_DDOT":"0.0000000000000","BSTAR":"0.00002669000000","SEMIMAJOR_AXIS":"6925.375","CLASSIFICATION_TYPE":"U","RA_OF_ASC_NODE":"30.8580","OBJECT_NAME":"STARLINK-2574","OBJECT_ID":"2021-038AU","ELEMENT_SET_NO":"999","CENTER_NAME":"EARTH","MEAN_ELEMENT_THEORY":"SGP4","PERIAPSIS":"546.344","APOAPSIS":"548.136","REF_FRAME":"TEME","FILE":"3545624","OBJECT_TYPE":"PAYLOAD","MEAN_MOTION_DOT":"0.00000116","MEAN_ANOMALY":"261.5027","TLE_LINE2":"2 48395  53.0568  30.8580 0001294  98.6109 261.5027 15.06391476 73499","MEAN_MOTION":"15.06391476","EPHEMERIS_TYPE":"0","COUNTRY_CODE":"US","LAUNCH_DATE":"2021-05-04","TLE_LINE1":"1 48395U 21038AU  22235.77677803  .00000116  00000-0  26690-4 0  9997","RCS_SIZE":"LARGE","GP_ID":"210859892","ARG_OF_PERICENTER":"98.6109","PERIOD":"95.593","ECCENTRICITY":"0.00012940","REV_AT_EPOCH":"7349","NORAD_CAT_ID":"48395","EPOCH":"2022-08-23T18:38:33.621792","DECAY_DATE":null},{"CLASSIFICATION_TYPE":"U","RA_OF_ASC_NODE":"30.1528","OBJECT_NAME":"STARLINK-2575","OBJECT_ID":"2021-038AV","ELEMENT_SET_NO":"999","CENTER_NAME":"EARTH","MEAN_ELEMENT_THEORY":"SGP4","PERIAPSIS":"546.292","APOAPSIS":"548.185","REF_FRAME":"TEME","TIME_SYSTEM":"UTC","INCLINATION":"53.0554","SITE":"AFETR","MEAN_MOTION_DDOT":"0.0000000000000","BSTAR":"0.00007079200000","SEMIMAJOR_AXIS":"6925.374","LAUNCH_DATE":"2021-05-04","TLE_LINE1":"1 48396U 21038AV  22235.79513360  .00000773  00000-0  70792-4 0  9998","RCS_SIZE":"LARGE","GP_ID":"210860146","ARG_OF_PERICENTER":"85.3148","PERIOD":"95.593","ECCENTRICITY":"0.00013670","NORAD_CAT_ID":"48396","REV_AT_EPOCH":"7350","EPOCH":"2022-08-23T19:04:59.543040","DECAY_DATE":null,"FILE":"3545624","OBJECT_TYPE":"PAYLOAD","MEAN_MOTION_DOT":"0.00000773","MEAN_ANOMALY":"274.7997","TLE_LINE2":"2 48396  53.0554  30.1528 0001367  85.3148 274.7997 15.06391792 73502","MEAN_MOTION":"15.06391792","EPHEMERIS_TYPE":"0","COUNTRY_CODE":"US"},{"LAUNCH_DATE":"2021-05-04","TLE_LINE1":"1 48397U 21038AW  22235.79143458  .00000555  00000-0  56166-4 0  9993","RCS_SIZE":"LARGE","ARG_OF_PERICENTER":"103.8183","GP_ID":"210860389","PERIOD":"95.592","ECCENTRICITY":"0.00015280","REV_AT_EPOCH":"7350","NORAD_CAT_ID":"48397","EPOCH":"2022-08-23T18:59:39.947712","DECAY_DATE":null,"OBJECT_TYPE":"PAYLOAD","FILE":"3545624","MEAN_MOTION_DOT":"0.00000555","TLE_LINE2":"2 48397  53.0568  30.1666 0001528 103.8183 256.2976 15.06401343 73501","MEAN_ANOMALY":"256.2976","MEAN_MOTION":"15.06401343","EPHEMERIS_TYPE":"0","COUNTRY_CODE":"US","CLASSIFICATION_TYPE":"U","RA_OF_ASC_NODE":"30.1666","OBJECT_ID":"2021-038AW","OBJECT_NAME":"STARLINK-2590","ELEMENT_SET_NO":"999","CENTER_NAME":"EARTH","MEAN_ELEMENT_THEORY":"SGP4","APOAPSIS":"548.268","PERIAPSIS":"546.151","REF_FRAME":"TEME","TIME_SYSTEM":"UTC","INCLINATION":"53.0568","SITE":"AFETR","MEAN_MOTION_DDOT":"0.0000000000000","BSTAR":"0.00005616600000","SEMIMAJOR_AXIS":"6925.344"},{"REF_FRAME":"TEME","PERIAPSIS":"546.258","APOAPSIS":"548.177","ELEMENT_SET_NO":"999","MEAN_ELEMENT_THEORY":"SGP4","CENTER_NAME":"EARTH","OBJECT_ID":"2021-038AX","OBJECT_NAME":"STARLINK-2588","RA_OF_ASC_NODE":"31.3638","CLASSIFICATION_TYPE":"U","BSTAR":"0.00004785900000","MEAN_MOTION_DDOT":"0.0000000000000","SEMIMAJOR_AXIS":"6925.353","INCLINATION":"53.0557","SITE":"AFETR","TIME_SYSTEM":"UTC","REV_AT_EPOCH":"7283","EPOCH":"2022-08-23T12:32:12.336000","NORAD_CAT_ID":"48398","DECAY_DATE":null,"PERIOD":"95.592","ECCENTRICITY":"0.00013860","GP_ID":"210831327","ARG_OF_PERICENTER":"90.0058","TLE_LINE1":"1 48398U 21038AX  22235.52236500  .00000431  00000-0  47859-4 0  9998","LAUNCH_DATE":"2021-05-04","RCS_SIZE":"LARGE","COUNTRY_CODE":"US","EPHEMERIS_TYPE":"0","MEAN_MOTION":"15.06398691","OBJECT_TYPE":"PAYLOAD","FILE":"3545303","TLE_LINE2":"2 48398  53.0557  31.3638 0001386  90.0058 270.1089 15.06398691 72838","MEAN_ANOMALY":"270.1089","MEAN_MOTION_DOT":"0.00000431"},{"ARG_OF_PERICENTER":"86.1641","GP_ID":"210859393","LAUNCH_DATE":"2021-05-04","TLE_LINE1":"1 48399U 21038AY  22235.71771692  .00000583  00000-0  58055-4 0  9994","RCS_SIZE":"LARGE","NORAD_CAT_ID":"48399","REV_AT_EPOCH":"7348","EPOCH":"2022-08-23T17:13:30.741888","DECAY_DATE":null,"PERIOD":"95.592","ECCENTRICITY":"0.00015080","MEAN_MOTION":"15.06399994","EPHEMERIS_TYPE":"0","OBJECT_TYPE":"PAYLOAD","FILE":"3545624","MEAN_MOTION_DOT":"0.00000583","MEAN_ANOMALY":"273.9520","TLE_LINE2":"2 48399  53.0553  30.4889 0001508  86.1641 273.9520 15.06399994 73483","COUNTRY_CODE":"US","RA_OF_ASC_NODE":"30.4889","OBJECT_ID":"2021-038AY","OBJECT_NAME":"STARLINK-2587","CLASSIFICATION_TYPE":"U","APOAPSIS":"548.258","PERIAPSIS":"546.169","REF_FRAME":"TEME","ELEMENT_SET_NO":"999","CENTER_NAME":"EARTH","MEAN_ELEMENT_THEORY":"SGP4","TIME_SYSTEM":"UTC","MEAN_MOTION_DDOT":"0.0000000000000","BSTAR":"0.00005805500000","SEMIMAJOR_AXIS":"6925.349","INCLINATION":"53.0553","SITE":"AFETR"}];
